{
  "type": "FeatureCollection",
  "features": [
    {
      "type": "Feature",
      "properties": {
        "id": "TRN_VOL",
        "lowerFL": 0,
        "upperFL": 195
      },
      "geometry": {
        "type": "Polygon",
        "coordinates": [
          [
            [
              12.26083,
              51.78028
            ],
            [
              12.44306,
              51.65028
            ],
            [
              12.52306,
              51.59278
            ],
            [
              12.82694,
              51.45722
            ],
            [
              13.1,
              51.50833
            ],
            [
              13.12639,
              51.50833
            ],
            [
              13.10639,
              51.40806
            ],
            [
              12.98389,
              51.45528
            ],
            [
              11.12028,
              51.36556
            ],
            [
              10.52917,
              51.21833
            ],
            [
              10.49278,
              51.33333
            ],
            [
              10.3875,
              51.33389
            ],
            [
              10.5925,
              51.48694
            ],
            [
              10.7,
              51.56667
            ],
            [
              10.98472,
              51.72111
            ],
            [
              11.14028,
              51.80444
            ],
            [
              11.20833,
              51.84111
            ],
            [
              11.40722,
              51.72139
            ],
            [
              12.09806,
              51.76944
            ],
            [
              12.26083,
              51.78028
            ]
          ]
        ]
      }
    },
    {
      "type": "Feature",
      "properties": {
        "id": "TRS_VOL",
        "lowerFL": 0,
        "upperFL": 195
      },
      "geometry": {
        "type": "Polygon",
        "coordinates": [
          [
            [
              13.10639,
              51.40806
            ],
            [
              13.09806,
              51.36667
            ],
            [
              12.31444,
              50.61028
            ],
            [
              12.11444,
              50.69083
            ],
            [
              11.88722,
              50.68667
            ],
            [
              11.34028,
              50.67472
            ],
            [
              10.70278,
              50.6575
            ],
            [
              10.63528,
              50.87722
            ],
            [
              10.58361,
              51.04389
            ],
            [
              10.52917,
              51.21833
            ],
            [
              11.12028,
              51.36556
            ],
            [
              12.98389,
              51.45528
            ],
            [
              13.10639,
              51.40806
            ]
          ]
        ]
      }
    },
    {
      "type": "Feature",
      "properties": {
        "id": "SAS_VOL",
        "lowerFL": 0,
        "upperFL": 165
      },
      "geometry": {
        "type": "Polygon",
        "coordinates": [
          [
            [
              14.7125,
              51.69833
            ],
            [
              14.73806,
              51.58306
            ],
            [
              14.8075,
              51.51167
            ],
            [
              14.94889,
              51.47167
            ],
            [
              14.96167,
              51.40694
            ],
            [
              15.01056,
              51.20306
            ],
            [
              14.91694,
              50.99056
            ],
            [
              14.72528,
              50.99917
            ],
            [
              13.7675,
              50.73417
            ],
            [
              13.00917,
              50.52056
            ],
            [
              12.75056,
              50.4325
            ],
            [
              12.49333,
              50.53778
            ],
            [
              12.31444,
              50.61028
            ],
            [
              13.09806,
              51.36667
            ],
            [
              13.10639,
              51.40806
            ],
            [
              13.12639,
              51.50833
            ],
            [
              13.24861,
              51.50833
            ],
            [
              13.75,
              51.50833
            ],
            [
              14.7125,
              51.69833
            ]
          ]
        ]
      }
    },
    {
      "type": "Feature",
      "properties": {
        "id": "FRK_VOL",
        "lowerFL": 0,
        "upperFL": 195
      },
      "geometry": {
        "type": "Polygon",
        "coordinates": [
          [
            [
              10.70278,
              50.6575
            ],
            [
              11.34028,
              50.67472
            ],
            [
              11.88722,
              50.68667
            ],
            [
              12.11444,
              50.69083
            ],
            [
              12.31444,
              50.61028
            ],
            [
              12.49333,
              50.53778
            ],
            [
              12.75056,
              50.4325
            ],
            [
              12.63361,
              50.39222
            ],
            [
              12.4875,
              50.34194
            ],
            [
              12.44,
              50.32556
            ],
            [
              12.37222,
              50.30194
            ],
            [
              12.35167,
              50.24028
            ],
            [
              12.33861,
              50.19056
            ],
            [
              12.34444,
              50.17
            ],
            [
              12.35472,
              50.13222
            ],
            [
              12.4725,
              49.70333
            ],
            [
              12.58056,
              49.63611
            ],
            [
              12.46,
              49.65222
            ],
            [
              12.37,
              49.66139
            ],
            [
              12.03306,
              49.52306
            ],
            [
              11.81889,
              49.43444
            ],
            [
              10.96667,
              49.44167
            ],
            [
              10.7725,
              49.65833
            ],
            [
              10.45417,
              50.00861
            ],
            [
              10.28056,
              50.19722
            ],
            [
              10.32472,
              50.24583
            ],
            [
              10.52694,
              50.46722
            ],
            [
              10.70278,
              50.6575
            ]
          ]
        ]
      }
    },
    {
      "type": "Feature",
      "properties": {
        "id": "HAL_VOL",
        "lowerFL": 195,
        "upperFL": 315
      },
      "geometry": {
        "type": "Polygon",
        "coordinates": [
          [
            [
              11.20833,
              51.84111
            ],
            [
              11.68083,
              51.92278
            ],
            [
              12.33972,
              51.79778
            ],
            [
              12.54333,
              51.72111
            ],
            [
              12.44306,
              51.65028
            ],
            [
              12.01833,
              51.34639
            ],
            [
              10.63528,
              50.87722
            ],
            [
              10.51444,
              50.87694
            ],
            [
              10.42472,
              50.98083
            ],
            [
              10.33806,
              51.08056
            ],
            [
              10.28361,
              51.10472
            ],
            [
              10.3875,
              51.33389
            ],
            [
              10.5925,
              51.48694
            ],
            [
              10.7,
              51.56667
            ],
            [
              10.98472,
              51.72111
            ],
            [
              11.14028,
              51.80444
            ],
            [
              11.20833,
              51.84111
            ]
          ]
        ]
      }
    },
    {
      "type": "Feature",
      "properties": {
        "id": "GER_VOL",
        "lowerFL": 195,
        "upperFL": 315
      },
      "geometry": {
        "type": "Polygon",
        "coordinates": [
          [
            [
              12.52306,
              51.59278
            ],
            [
              12.82694,
              51.45722
            ],
            [
              12.82694,
              51.45722
            ],
            [
              13.1,
              51.50833
            ],
            [
              13.1,
              51.50833
            ],
            [
              13.12639,
              51.50833
            ],
            [
              13.12639,
              51.50833
            ],
            [
              13.10639,
              51.40806
            ],
            [
              13.10639,
              51.40806
            ],
            [
              13.09806,
              51.36667
            ],
            [
              13.09806,
              51.36667
            ],
            [
              12.31444,
              50.61028
            ],
            [
              12.31444,
              50.61028
            ],
            [
              12.11444,
              50.69083
            ],
            [
              12.11444,
              50.69083
            ],
            [
              11.88722,
              50.68667
            ],
            [
              11.88722,
              50.68667
            ],
            [
              11.34028,
              50.67472
            ],
            [
              11.34028,
              50.67472
            ],
            [
              10.70278,
              50.6575
            ],
            [
              10.70278,
              50.6575
            ],
            [
              10.63528,
              50.87722
            ],
            [
              10.63528,
              50.87722
            ],
            [
              12.01833,
              51.34639
            ],
            [
              12.01833,
              51.34639
            ],
            [
              12.44306,
              51.65028
            ],
            [
              12.44306,
              51.65028
            ],
            [
              12.52306,
              51.59278
            ]
          ]
        ]
      }
    },
    {
      "type": "Feature",
      "properties": {
        "id": "MEI_VOL",
        "lowerFL": 165,
        "upperFL": 315
      },
      "geometry": {
        "type": "Polygon",
        "coordinates": [
          [
            [
              14.68028,
              52.13861
            ],
            [
              14.68806,
              52.11306
            ],
            [
              14.69694,
              52.10111
            ],
            [
              14.73667,
              52.09
            ],
            [
              14.75917,
              52.07056
            ],
            [
              14.74778,
              52.05778
            ],
            [
              14.74389,
              52.03111
            ],
            [
              14.71861,
              52.00222
            ],
            [
              14.71722,
              51.99167
            ],
            [
              14.70722,
              51.97417
            ],
            [
              14.70722,
              51.96222
            ],
            [
              14.71861,
              51.94694
            ],
            [
              14.70722,
              51.93333
            ],
            [
              14.69139,
              51.89778
            ],
            [
              14.66,
              51.88639
            ],
            [
              14.64417,
              51.86361
            ],
            [
              14.61611,
              51.85389
            ],
            [
              14.61306,
              51.84528
            ],
            [
              14.60333,
              51.84111
            ],
            [
              14.59944,
              51.81861
            ],
            [
              14.61111,
              51.80278
            ],
            [
              14.61667,
              51.8
            ],
            [
              14.63806,
              51.79694
            ],
            [
              14.64944,
              51.78667
            ],
            [
              14.65778,
              51.75722
            ],
            [
              14.65611,
              51.74417
            ],
            [
              14.66917,
              51.72222
            ],
            [
              14.69861,
              51.7025
            ],
            [
              14.7125,
              51.69833
            ],
            [
              14.73806,
              51.58306
            ],
            [
              14.8075,
              51.51167
            ],
            [
              14.94889,
              51.47167
            ],
            [
              14.96167,
              51.40694
            ],
            [
              15.01056,
              51.20306
            ],
            [
              14.91694,
              50.99056
            ],
            [
              14.72528,
              50.99917
            ],
            [
              13.7675,
              50.73417
            ],
            [
              13.00917,
              50.52056
            ],
            [
              12.75056,
              50.4325
            ],
            [
              12.49333,
              50.53778
            ],
            [
              12.31444,
              50.61028
            ],
            [
              13.09806,
              51.36667
            ],
            [
              13.12639,
              51.50833
            ],
            [
              13.1,
              51.50833
            ],
            [
              12.82694,
              51.45722
            ],
            [
              12.85139,
              51.60389
            ],
            [
              14.46556,
              52.145
            ],
            [
              14.68028,
              52.13861
            ]
          ]
        ]
      }
    },
    {
      "type": "Feature",
      "properties": {
        "id": "BBG_VOL",
        "lowerFL": 195,
        "upperFL": 315
      },
      "geometry": {
        "type": "Polygon",
        "coordinates": [
          [
            [
              11.34028,
              50.67472
            ],
            [
              11.32889,
              50.03778
            ],
            [
              12.03306,
              49.52306
            ],
            [
              11.81889,
              49.43444
            ],
            [
              10.96667,
              49.44167
            ],
            [
              10.7725,
              49.65833
            ],
            [
              10.45417,
              50.00861
            ],
            [
              10.28056,
              50.19722
            ],
            [
              10.32472,
              50.24583
            ],
            [
              10.52694,
              50.46722
            ],
            [
              10.70278,
              50.6575
            ],
            [
              11.34028,
              50.67472
            ]
          ]
        ]
      }
    },
    {
      "type": "Feature",
      "properties": {
        "id": "HOF_VOL",
        "lowerFL": 195,
        "upperFL": 315
      },
      "geometry": {
        "type": "Polygon",
        "coordinates": [
          [
            [
              12.11444,
              50.69083
            ],
            [
              12.31444,
              50.61028
            ],
            [
              12.49333,
              50.53778
            ],
            [
              12.75056,
              50.4325
            ],
            [
              12.63361,
              50.39222
            ],
            [
              12.4875,
              50.34194
            ],
            [
              12.44,
              50.32556
            ],
            [
              12.37222,
              50.30194
            ],
            [
              12.35167,
              50.24028
            ],
            [
              12.33861,
              50.19056
            ],
            [
              12.34444,
              50.17
            ],
            [
              12.35472,
              50.13222
            ],
            [
              12.4725,
              49.70333
            ],
            [
              12.58056,
              49.63611
            ],
            [
              12.46,
              49.65222
            ],
            [
              12.37,
              49.66139
            ],
            [
              12.03306,
              49.52306
            ],
            [
              11.32889,
              50.03778
            ],
            [
              11.34028,
              50.67472
            ],
            [
              11.88722,
              50.68667
            ],
            [
              12.11444,
              50.69083
            ]
          ]
        ]
      }
    },
    {
      "type": "Feature",
      "properties": {
        "id": "SAL_VOL",
        "lowerFL": 315,
        "upperFL": 660
      },
      "geometry": {
        "type": "Polygon",
        "coordinates": [
          [
            [
              11.68083,
              51.92278
            ],
            [
              12.33972,
              51.79778
            ],
            [
              12.54333,
              51.72111
            ],
            [
              12.85139,
              51.60389
            ],
            [
              12.82694,
              51.45722
            ],
            [
              12.52111,
              51.26111
            ],
            [
              12.11444,
              50.69083
            ],
            [
              12.31444,
              50.61028
            ],
            [
              12.75056,
              50.4325
            ],
            [
              12.63361,
              50.39222
            ],
            [
              12.4875,
              50.34194
            ],
            [
              12.44,
              50.32556
            ],
            [
              12.37222,
              50.30194
            ],
            [
              12.35167,
              50.24028
            ],
            [
              11.33167,
              50.50194
            ],
            [
              10.70278,
              50.6575
            ],
            [
              10.51444,
              50.87694
            ],
            [
              10.42472,
              50.98083
            ],
            [
              10.33806,
              51.08056
            ],
            [
              10.28361,
              51.10472
            ],
            [
              10.3875,
              51.33389
            ],
            [
              10.5925,
              51.48694
            ],
            [
              10.7,
              51.56667
            ],
            [
              10.98472,
              51.72111
            ],
            [
              11.14028,
              51.80444
            ],
            [
              11.20833,
              51.84111
            ],
            [
              11.68083,
              51.92278
            ]
          ]
        ]
      }
    },
    {
      "type": "Feature",
      "properties": {
        "id": "SPE_VOL",
        "lowerFL": 315,
        "upperFL": 660
      },
      "geometry": {
        "type": "Polygon",
        "coordinates": [
          [
            [
              14.68028,
              52.13861
            ],
            [
              14.68806,
              52.11306
            ],
            [
              14.69694,
              52.10111
            ],
            [
              14.73667,
              52.09
            ],
            [
              14.75917,
              52.07056
            ],
            [
              14.74778,
              52.05778
            ],
            [
              14.74389,
              52.03111
            ],
            [
              14.71861,
              52.00222
            ],
            [
              14.71722,
              51.99167
            ],
            [
              14.70722,
              51.97417
            ],
            [
              14.70722,
              51.96222
            ],
            [
              14.71861,
              51.94694
            ],
            [
              14.70722,
              51.93333
            ],
            [
              14.69139,
              51.89778
            ],
            [
              14.66,
              51.88639
            ],
            [
              14.64417,
              51.86361
            ],
            [
              14.61611,
              51.85389
            ],
            [
              14.61306,
              51.84528
            ],
            [
              14.60333,
              51.84111
            ],
            [
              14.59944,
              51.81861
            ],
            [
              14.61111,
              51.80278
            ],
            [
              14.61667,
              51.8
            ],
            [
              14.63806,
              51.79694
            ],
            [
              14.64944,
              51.78667
            ],
            [
              14.65778,
              51.75722
            ],
            [
              14.65611,
              51.74417
            ],
            [
              14.66917,
              51.72222
            ],
            [
              14.69861,
              51.7025
            ],
            [
              14.7125,
              51.69833
            ],
            [
              14.73806,
              51.58306
            ],
            [
              14.8075,
              51.51167
            ],
            [
              14.94889,
              51.47167
            ],
            [
              14.96167,
              51.40694
            ],
            [
              15.01056,
              51.20306
            ],
            [
              14.91694,
              50.99056
            ],
            [
              14.72528,
              50.99917
            ],
            [
              13.7675,
              50.73417
            ],
            [
              13.00917,
              50.52056
            ],
            [
              12.75056,
              50.4325
            ],
            [
              12.31444,
              50.61028
            ],
            [
              12.11444,
              50.69083
            ],
            [
              12.52111,
              51.26111
            ],
            [
              12.82694,
              51.45722
            ],
            [
              12.85139,
              51.60389
            ],
            [
              14.46556,
              52.145
            ],
            [
              14.68028,
              52.13861
            ]
          ]
        ]
      }
    },
    {
      "type": "Feature",
      "properties": {
        "id": "ERL_VOL",
        "lowerFL": 315,
        "upperFL": 660
      },
      "geometry": {
        "type": "Polygon",
        "coordinates": [
          [
            [
              10.70278,
              50.6575
            ],
            [
              11.33167,
              50.50194
            ],
            [
              12.35167,
              50.24028
            ],
            [
              12.33861,
              50.19056
            ],
            [
              12.34444,
              50.17
            ],
            [
              12.35472,
              50.13222
            ],
            [
              12.4725,
              49.70333
            ],
            [
              12.58056,
              49.63611
            ],
            [
              12.46,
              49.65222
            ],
            [
              12.37,
              49.66139
            ],
            [
              12.03306,
              49.52306
            ],
            [
              11.81889,
              49.43444
            ],
            [
              10.96667,
              49.44167
            ],
            [
              10.7725,
              49.65833
            ],
            [
              10.45417,
              50.00861
            ],
            [
              10.28056,
              50.19722
            ],
            [
              10.32472,
              50.24583
            ],
            [
              10.52694,
              50.46722
            ],
            [
              10.70278,
              50.6575
            ]
          ]
        ]
      }
    },
    {
      "type": "Feature",
      "properties": {
        "id": "DON_VOL",
        "lowerFL": 315,
        "upperFL": 660
      },
      "geometry": {
        "type": "Polygon",
        "coordinates": [
          [
            [
              12.37,
              49.66139
            ],
            [
              12.46,
              49.65222
            ],
            [
              12.58056,
              49.63611
            ],
            [
              12.87278,
              49.4425
            ],
            [
              13.15861,
              49.25306
            ],
            [
              13.78639,
              48.83
            ],
            [
              13.25917,
              48.36611
            ],
            [
              13.18139,
              48.29639
            ],
            [
              13.09583,
              48.26361
            ],
            [
              12.88278,
              48.26528
            ],
            [
              12.69722,
              48.26639
            ],
            [
              11.94556,
              48.4525
            ],
            [
              12.01306,
              48.56694
            ],
            [
              11.21083,
              48.76722
            ],
            [
              10.67361,
              49.11944
            ],
            [
              10.58778,
              49.17861
            ],
            [
              10.96667,
              49.44167
            ],
            [
              11.81889,
              49.43444
            ],
            [
              12.03306,
              49.52306
            ],
            [
              12.37,
              49.66139
            ]
          ]
        ]
      }
    },
    {
      "type": "Feature",
      "properties": {
        "id": "HVL_VOL",
        "lowerFL": 285,
        "upperFL": 660
      },
      "geometry": {
        "type": "Polygon",
        "coordinates": [
          [
            [
              11.20833,
              51.84111
            ],
            [
              11.1275,
              51.90833
            ],
            [
              11.12472,
              51.93167
            ],
            [
              11.11222,
              52.03694
            ],
            [
              11.09417,
              52.18639
            ],
            [
              11.09167,
              52.20833
            ],
            [
              11.08056,
              52.29167
            ],
            [
              11.07028,
              52.37361
            ],
            [
              11.07833,
              52.4525
            ],
            [
              11.08139,
              52.47944
            ],
            [
              11.09917,
              52.64944
            ],
            [
              11.10722,
              52.73056
            ],
            [
              12.09944,
              52.88611
            ],
            [
              14.21611,
              52.81583
            ],
            [
              14.30611,
              52.76139
            ],
            [
              14.3475,
              52.75222
            ],
            [
              14.38139,
              52.72861
            ],
            [
              14.43167,
              52.68417
            ],
            [
              14.46,
              52.67056
            ],
            [
              14.47611,
              52.65389
            ],
            [
              14.51028,
              52.64
            ],
            [
              14.52583,
              52.63167
            ],
            [
              14.55083,
              52.62861
            ],
            [
              14.58889,
              52.61083
            ],
            [
              14.60833,
              52.60167
            ],
            [
              14.63889,
              52.57333
            ],
            [
              14.64139,
              52.56306
            ],
            [
              14.62778,
              52.55833
            ],
            [
              14.60972,
              52.52611
            ],
            [
              14.61139,
              52.51417
            ],
            [
              14.62111,
              52.50778
            ],
            [
              14.63583,
              52.49944
            ],
            [
              14.635,
              52.49361
            ],
            [
              14.58806,
              52.44167
            ],
            [
              14.54556,
              52.42667
            ],
            [
              14.53556,
              52.39167
            ],
            [
              14.55,
              52.37694
            ],
            [
              14.565,
              52.32972
            ],
            [
              14.57861,
              52.32
            ],
            [
              14.58667,
              52.30556
            ],
            [
              14.58,
              52.29361
            ],
            [
              14.57806,
              52.29028
            ],
            [
              14.58167,
              52.28611
            ],
            [
              14.60167,
              52.27111
            ],
            [
              14.61972,
              52.27083
            ],
            [
              14.63944,
              52.26194
            ],
            [
              14.69361,
              52.25444
            ],
            [
              14.71194,
              52.24167
            ],
            [
              14.71556,
              52.23083
            ],
            [
              14.71306,
              52.21778
            ],
            [
              14.69306,
              52.19389
            ],
            [
              14.70944,
              52.17472
            ],
            [
              14.70917,
              52.16778
            ],
            [
              14.70167,
              52.16278
            ],
            [
              14.68583,
              52.14611
            ],
            [
              14.68028,
              52.13861
            ],
            [
              14.46556,
              52.145
            ],
            [
              12.85139,
              51.60389
            ],
            [
              12.54333,
              51.72111
            ],
            [
              12.33972,
              51.79778
            ],
            [
              11.68083,
              51.92278
            ],
            [
              11.20833,
              51.84111
            ]
          ]
        ]
      }
    },
    {
      "type": "Feature",
      "properties": {
        "id": "SL_VOL",
        "lowerFL": 245,
        "upperFL": 660
      },
      "geometry": {
        "type": "Polygon",
        "coordinates": [
          [
            [
              11.08056,
              52.29167
            ],
            [
              11.09167,
              52.20833
            ],
            [
              11.09417,
              52.18639
            ],
            [
              11.11222,
              52.03694
            ],
            [
              11.12472,
              51.93167
            ],
            [
              11.1275,
              51.90833
            ],
            [
              11.20833,
              51.84111
            ],
            [
              11.14028,
              51.80444
            ],
            [
              10.98472,
              51.72111
            ],
            [
              10.7,
              51.56667
            ],
            [
              10.5925,
              51.48694
            ],
            [
              10.3875,
              51.33389
            ],
            [
              10.05944,
              51.33361
            ],
            [
              9.93611,
              51.33333
            ],
            [
              9.51722,
              51.33333
            ],
            [
              9.16667,
              51.33333
            ],
            [
              8.81778,
              51.19639
            ],
            [
              8.4875,
              51.46667
            ],
            [
              8.50389,
              51.84111
            ],
            [
              9.40833,
              52.05
            ],
            [
              9.88583,
              52.16139
            ],
            [
              10.80833,
              52.28333
            ],
            [
              11.08056,
              52.29167
            ]
          ]
        ]
      }
    },
    {
      "type": "Feature",
      "properties": {
        "id": "FUL_VOL",
        "lowerFL": 245,
        "upperFL": 660
      },
      "geometry": {
        "type": "Polygon",
        "coordinates": [
          [
            [
              10.33806,
              51.08056
            ],
            [
              10.42472,
              50.98083
            ],
            [
              10.51444,
              50.87694
            ],
            [
              10.70278,
              50.6575
            ],
            [
              10.52694,
              50.46722
            ],
            [
              10.32472,
              50.24583
            ],
            [
              10.28056,
              50.19722
            ],
            [
              9.39833,
              50.40028
            ],
            [
              8.7275,
              50.85
            ],
            [
              8.24722,
              50.98111
            ],
            [
              8.41667,
              51.04472
            ],
            [
              8.58667,
              51.10861
            ],
            [
              8.74194,
              51.16639
            ],
            [
              8.81778,
              51.19639
            ],
            [
              9.16667,
              51.33333
            ],
            [
              9.51722,
              51.33333
            ],
            [
              9.96306,
              51.20111
            ],
            [
              10.28361,
              51.10472
            ],
            [
              10.33806,
              51.08056
            ]
          ]
        ]
      }
    },
    {
      "type": "Feature",
      "properties": {
        "id": "WUR_VOL",
        "lowerFL": 245,
        "upperFL": 660
      },
      "geometry": {
        "type": "Polygon",
        "coordinates": [
          [
            [
              9.39833,
              50.40028
            ],
            [
              10.28056,
              50.19722
            ],
            [
              10.45417,
              50.00861
            ],
            [
              10.7725,
              49.65833
            ],
            [
              10.96667,
              49.44167
            ],
            [
              10.58778,
              49.17861
            ],
            [
              10.47917,
              49.11111
            ],
            [
              10.2575,
              49.01722
            ],
            [
              10.09694,
              48.94861
            ],
            [
              9.89639,
              49.05639
            ],
            [
              9.11056,
              49.365
            ],
            [
              9.18694,
              49.55556
            ],
            [
              9.43111,
              50.29861
            ],
            [
              9.39833,
              50.40028
            ]
          ]
        ]
      }
    },
    {
      "type": "Feature",
      "properties": {
        "id": "DKB_85_VOL",
        "lowerFL": 0,
        "upperFL": 85
      },
      "geometry": {
        "type": "Polygon",
        "coordinates": [
          [
            [
              10.29222,
              49.98111
            ],
            [
              10.29444,
              49.94028
            ],
            [
              10.3,
              49.83333
            ],
            [
              10.33611,
              49.58
            ],
            [
              10.37222,
              49.32222
            ],
            [
              10.12722,
              49.31861
            ],
            [
              9.8425,
              49.26778
            ],
            [
              9.65583,
              49.28944
            ],
            [
              9.45278,
              49.27222
            ],
            [
              9.59306,
              49.44917
            ],
            [
              9.54694,
              49.61111
            ],
            [
              9.51806,
              49.7125
            ],
            [
              9.57333,
              49.72556
            ],
            [
              9.67139,
              49.74861
            ],
            [
              9.69778,
              49.77917
            ],
            [
              9.70472,
              49.92417
            ],
            [
              9.6925,
              49.9775
            ],
            [
              9.75778,
              49.97806
            ],
            [
              10.29222,
              49.98111
            ]
          ]
        ]
      }
    },
    {
      "type": "Feature",
      "properties": {
        "id": "LKAA_U_VOL",
        "lowerFL": 305,
        "upperFL": 660
      },
      "geometry": {
        "type": "Polygon",
        "coordinates": [
          [
            [
              12.75056,
              50.4325
            ],
            [
              13.00917,
              50.52056
            ],
            [
              13.7675,
              50.73417
            ],
            [
              13.79972,
              50.59667
            ],
            [
              13.81667,
              50.525
            ],
            [
              13.83944,
              50.47417
            ],
            [
              14.06222,
              49.97972
            ],
            [
              14.46694,
              49.95889
            ],
            [
              14.30306,
              49.73528
            ],
            [
              14.525,
              49.53722
            ],
            [
              15.12028,
              49.00611
            ],
            [
              15.2425,
              48.89556
            ],
            [
              15.11611,
              48.89778
            ],
            [
              14.9725,
              48.85833
            ],
            [
              14.4475,
              48.97194
            ],
            [
              13.78639,
              48.83
            ],
            [
              13.15861,
              49.25306
            ],
            [
              12.87278,
              49.4425
            ],
            [
              12.58056,
              49.63611
            ],
            [
              12.4725,
              49.70333
            ],
            [
              12.35472,
              50.13222
            ],
            [
              12.34417,
              50.16972
            ],
            [
              12.33861,
              50.19056
            ],
            [
              12.35167,
              50.24028
            ],
            [
              12.37222,
              50.30194
            ],
            [
              12.44,
              50.32556
            ],
            [
              12.4875,
              50.34194
            ],
            [
              12.63333,
              50.39222
            ],
            [
              12.75056,
              50.4325
            ]
          ]
        ]
      }
    }
  ]
}